[Satellite]
VERSION=1.1
NAME=FLOCK 1C-5
NICKNAME=FLOCK 1C-5
TLE1=1 40038U 14033AE  15055.34854849  .00001588  00000-0  18408-3 0  9993
TLE2=2 40038  97.9719 315.5274 0014781 179.0073 181.1161 14.86820582 37018
